name,description,address,picture,city,activities_category,latitude,longitude
Sugarloaf Mountain,"One of the most beautiful attractions in Rio de Janeiro and one of the most famous in Brazil. Our mission is to take people to an enchantment, fun and entertainment journey ‚Äì providing happy and unforgettable experiences as well as valuing Brazilian culture. We constantly invest in safety, comfort and innovative technologies. Our locations constitute natural, geological, historical, and touristic landmarks in the city of Rio de Janeiro. As a natural landmark, it reminds us of our reference to the sailors who come to Guanabara Bay. As a geological landmark, it reminds us of our geological site precisely dating the history of our planet. We also talk about historical landmark because on March 1, 1565, Estacio de Sa founded the City of Sao Sebastiao in Rio de Janeiro literally on its feet. And, finally, touristic landmark because the Cable Car opened on Sugarloaf projected Brazil‚Äôs name worldwide. It has been the first cable car installed in Brazil and the third in the world.","Av. Pasteur, 520 - Urca, Rio de Janeiro, State of Rio de Janeiro 22290-255, Brazil",https://scontent-cdg2-1.cdninstagram.com/v/t51.2885-15/e35/p1080x1080/74649514_2453558548094763_5074128037523899841_n.jpg?_nc_ht=scontent-cdg2-1.cdninstagram.com&_nc_cat=103&oh=b0ec1e210a1c80fb094e40d737e9b006&oe=5E668163,Rio De Janeiro,Landmarks,-22.954434,-43.167019
Corcovado - Christ the Redeemer,"Colossal statue of Jesus Christ at the summit of Mount Corcovado, Rio de Janeiro, southeastern Brazil","Estrada Redentor - Alto da Boa Vista | Parque Nacional da Tijuca, Rio de Janeiro, State of Rio de Janeiro 22241-330, Brazil",https://scontent-cdg2-1.cdninstagram.com/v/t51.2885-15/e35/41826058_1972772512781717_543811783690563482_n.jpg?_nc_ht=scontent-cdg2-1.cdninstagram.com&_nc_cat=105&oh=8583e983e3dae27c1004655626e73d6b&oe=5E8398C4,Rio De Janeiro,Landmarks,-22.951768,-43.210466
Botanical Garden,"Two 800-yard-long rows of towering royal palm trees are a highlight of this massive garden containing thousands of plants and trees, including every variety of palm tree imaginable.","Rua Jardim Botanico 1008 | Jardim Botânico, Rio de Janeiro, State of Rio de Janeiro 22460-000, Brazil",https://scontent-cdg2-1.cdninstagram.com/v/t51.2885-15/e35/p1080x1080/75580621_2780152482005858_1802002040601171964_n.jpg?_nc_ht=scontent-cdg2-1.cdninstagram.com&_nc_cat=102&oh=5c1ec59fc839cbde63daacc4751d2630&oe=5E8B26AA,Rio De Janeiro,Landmarks,-22.970083,-43.223472
Morro da Urca,This is the first hill up on the way to Rio's famous Sugar Loaf. It offers it's own marvelous view from the top (215 meters) but its base is also a good place for hiking.,"Praia Vermelha, Rio de Janeiro, State of Rio de Janeiro 22290-270 Brazil",https://scontent-cdg2-1.cdninstagram.com/v/t51.2885-15/e35/s1080x1080/73521773_155475232394906_711595007866693543_n.jpg?_nc_ht=scontent-cdg2-1.cdninstagram.com&_nc_cat=102&oh=3f42fa9b2ea57fc3a3bf920780f5166c&oe=5E7F1F87,Rio De Janeiro,Landmarks,-22.955102,-43.164675
Ipanema Beach,"Popularized by the song ""The Girl from Ipanema,"" this world-famous beach gives foreign visitors a sense of life in Rio, displaying a cross-section of different lifestyles, chic boutiques and eateries and luxurious apartment buildings.","Avenida Vieira Souto - Ipanema, Rio de Janeiro, State of Rio de Janeiro 22420-002, Brazil",https://scontent-cdg2-1.cdninstagram.com/v/t51.2885-15/e35/72781802_102726034458066_4778992008227523273_n.jpg?_nc_ht=scontent-cdg2-1.cdninstagram.com&_nc_cat=106&oh=b29269d57a0168297d6e27cdeb76d71e&oe=5E6FF4A6,Rio De Janeiro,Landmarks,-22.986564,-43.205109
Museu do Amanha,"The Museum of Tomorrow is a new kind of Science museums. Here you are invited to examine the past, understand today's global trends and envision possible scenarios for the next 50 years through immersive audiovisual environments, interactive installations and games available to public in Portuguese, English and Spanish. The Museum has areas dedicated to temporary exhibitions, an auditorium for events, an inviting caf√©, a restaurant and a Museum shop. The Museum also has three specific areas of programming: Education, Laboratory of Tomorrow and the Observatory of Tomorrow.","Praca Maua 1, Rio de Janeiro, State of Rio de Janeiro 20081-240, Brazil",https://scontent-cdg2-1.cdninstagram.com/v/t51.2885-15/e35/70917131_521224158659713_2905972871115817758_n.jpg?_nc_ht=scontent-cdg2-1.cdninstagram.com&_nc_cat=101&oh=3b2bda23baf29e0ad39ef725992e514c&oe=5E77C40E,Rio De Janeiro,Landmarks,-22.894495,-43.179664
Parque Lage,"Parque Enrique Lage is a public park in the city of Rio de Janeiro, located in the Jardim Botânico neighborhood at the foot of the Corcovado.","Rua Jardim Botanico 414 | Jardim Botânico, Rio de Janeiro, State of Rio de Janeiro 22461-000, Brazil",https://scontent-cdg2-1.cdninstagram.com/v/t51.2885-15/e35/75580697_508015799927956_6914257562187665893_n.jpg?_nc_ht=scontent-cdg2-1.cdninstagram.com&_nc_cat=104&oh=0d4e9643bd8ff444f2ebf44b877160c6&oe=5E7A15FD,Rio De Janeiro,Landmarks,-22.960115,-43.211857
AquaRio," AquaRio is a public aquarium located in the Gamboa neighborhood, in the port zone of Rio de Janeiro, Brazil. With a constructed area of about 26,000 square metres (280,000 sq ft), it is located between Muhammad Ali Square. It is considered the largest marine aquarium in South America.","Via Binario do Porto, 194 | Praca Muhammad Ali, Rio de Janeiro, State of Rio de Janeiro 20220-360, Brazil",https://scontent-cdg2-1.cdninstagram.com/v/t51.2885-15/e35/p1080x1080/74876697_2499225073662555_6830548462318745410_n.jpg?_nc_ht=scontent-cdg2-1.cdninstagram.com&_nc_cat=103&oh=a0f3fc124b97b7d80a276fcf14f9cb02&oe=5E8BE06D,Rio De Janeiro,Landmarks,-22.892894,-43.192868
Pedra do Telégrafo,"The Pedra do Telégrafo near Rio de Janeiro, is a rocky promontory that offers a magnificent view of the beaches of the west of the city.","Rua Almirante Carlos Tinoco 432 500 | Barra de Guaratiba, Rio de Janeiro, State of Rio de Janeiro 23020-260, Brazil",https://scontent-cdg2-1.cdninstagram.com/v/t51.2885-15/e35/37105191_214224749166749_6037133265368776704_n.jpg?_nc_ht=scontent-cdg2-1.cdninstagram.com&_nc_cat=105&oh=970a6d58533e432ac6be01fe06b59c95&oe=5E821B3D,Rio De Janeiro,Landmarks,-23.065551,-43.567969
Real Gabinete Portugues Da Leitura,"The Royal Portuguese Cabinet of Reading (Portuguese: Real Gabinete Português de Leitura) is a library and lusophone cultural institution, is located in Luís de Camões Street, number 30, in the center of the city of Rio de Janeiro, Brazil. It is listed by the State Institute of Cultural Heritage.","Rua Luis de Camoes 30, Rio de Janeiro, State of Rio de Janeiro 20051-020 Brazil",https://scontent-cdg2-1.cdninstagram.com/v/t51.2885-15/e35/61471383_120546909161177_2854362474002636885_n.jpg?_nc_ht=scontent-cdg2-1.cdninstagram.com&_nc_cat=105&oh=accacdf3d98842f1fa57807cd6ab783e&oe=5E7B945E,Rio De Janeiro,Landmarks,-22.905361,-43.182187
Theatro Municipal do Rio de Janeiro,"Whether to attend a show or take a tour, it‚Äôs worth seeing this lavish 1909 theater, filled with gilded mirrors, statues, murals, stained-glass windows and sparkling chandeliers.","Praca Floriano, Rio de Janeiro, State of Rio de Janeiro 20031-050 Brazil",https://scontent-cdg2-1.cdninstagram.com/v/t51.2885-15/e35/72661137_262503268030991_2498132169810729739_n.jpg?_nc_ht=scontent-cdg2-1.cdninstagram.com&_nc_cat=111&oh=cfbe92edeb29044ba6fe25852cd8551a&oe=5E712518,Rio De Janeiro,Landmarks,-22.910428,-43.176008
Escadaria Selarón,"Escadaria Selarón, also known as the 'Selaron Steps', is a set of world-famous steps in Rio de Janeiro, Brazil. They are the work of Chilean-born artist Jorge Selarón who claimed it as ""my tribute to the Brazilian people""","Rua Joaquim Silva S/N, Rio de Janeiro, State of Rio de Janeiro 20241-110, Brazil",https://scontent-cdg2-1.cdninstagram.com/v/t51.2885-15/e35/p1080x1080/72295503_198281838001975_5225206554059579117_n.jpg?_nc_ht=scontent-cdg2-1.cdninstagram.com&_nc_cat=107&oh=32935bbbbf189697fe3f67e8ef355f39&oe=5E70CA26,Rio De Janeiro,Landmarks,-22.915051,-43.17906
Forte de Copacabana,"Fort Copacabana is a military base at the south end of the beach that defines the district of Copacabana, Rio de Janeiro. The base is open to the public and contains the Museu Histórico do Exército (Army Historical Museum) and a coastal defense fort that is the actual Fort Copacabana","Praca Coronel Eugenio Franco 1 | Spot 6, Rio de Janeiro, State of Rio de Janeiro 22070-020, Brazil",https://scontent-cdg2-1.cdninstagram.com/v/t51.2885-15/e35/s1080x1080/66108566_2106370489471273_5835156815769664688_n.jpg?_nc_ht=scontent-cdg2-1.cdninstagram.com&_nc_cat=101&oh=269318fcc474c645f2c1114558eeb959&oe=5E77783E,Rio De Janeiro,Landmarks,-22.986034,-43.186523
Centro Cultural Banco do Brasil - CCBB Rio de Janeiro,"The CCBB is a cultural center that consists of exhibition rooms, three theaters, a library, cinema, and a video room. It is housed in an art deco style building located in what used to be the financial district of Rio de Janeiro.","Rua Primeiro de Marco 66, Rio de Janeiro, State of Rio de Janeiro 20010-000, Brazil",https://scontent-cdg2-1.cdninstagram.com/v/t51.2885-15/e35/31076377_233071370778242_6858086203523072000_n.jpg?_nc_ht=scontent-cdg2-1.cdninstagram.com&_nc_cat=102&oh=0e40a5bdee8c67720db7f348216b92d7&oe=5E7AFC4F,Rio De Janeiro,Landmarks,-22.900778,-43.176283
National History Museum,"Originally a fort and ammunition depot, the National History Museum today houses permanent and temporary exhibitions marking the social and economic history of Brazil. Highlights include an extensive numismatic collection, a sacred art exhibit of shrines and paintings, and an exhibit devoted to carriages and transportation.","Praca Marechal Ancora s/n, Rio de Janeiro, State of Rio de Janeiro 20021-200, Brazil",https://scontent-cdg2-1.cdninstagram.com/v/t51.2885-15/sh0.08/e35/c0.135.1080.1080a/s640x640/53632425_583216432178950_3125366474419620413_n.jpg?_nc_ht=scontent-cdg2-1.cdninstagram.com&_nc_cat=110&oh=2ffb2ab300a2e680967538d811e8c30b&oe=5E876346,Rio De Janeiro,Landmarks,-22.903609,-43.170702
Bondinho de Santa Teresa,"The Santa Teresa Tram is a historic tram line in Rio de Janeiro, Brazil. It connects the city centre with the primarily residential, inner-city neighbourhood of Santa Teresa, in the hills immediately southwest of downtown. It is mainly maintained as a tourist attraction and is nowadays considered a heritage tramway system, having been designated a national historic monument in 1988","Rua Lelio Gama 2, Rio de Janeiro, State of Rio de Janeiro 20031-080, Brazil",https://scontent-cdg2-1.cdninstagram.com/v/t51.2885-15/e35/p1080x1080/74609573_412631512737285_6482930799180425513_n.jpg?_nc_ht=scontent-cdg2-1.cdninstagram.com&_nc_cat=109&oh=2d6638d335622e2e6935195124eb5fde&oe=5E80EDAF,Rio De Janeiro,Landmarks,-22.910125,-43.178624
Museu Nacional De Belas Artes,Inside this French Renaissance-style building is a collection of paintings by Brazil's finest contemporary artists as well as an impressive array of folk and African art.,"Avenida Rio Branco 199 | Centro, Rio de Janeiro, State of Rio de Janeiro 20040-008, Brazil",https://scontent-cdg2-1.cdninstagram.com/v/t51.2885-15/e35/p1080x1080/80634986_126733408783341_676681376425487780_n.jpg?_nc_ht=scontent-cdg2-1.cdninstagram.com&_nc_cat=109&oh=a5d1a389ff763d60cabc2e5b1406eadf&oe=5E66BE99,Rio De Janeiro,Landmarks,-22.908622,-43.175856
Ilha Fiscal,"Ilha Fiscal is an island in Guanabara Bay, bordering the historic city center of Rio de Janeiro, in southeastern Brazil.
","Avenida Alfredo Agache | s/n Centro, Rio de Janeiro, State of Rio de Janeiro 20040-020, Brazil",https://scontent-cdg2-1.cdninstagram.com/v/t51.2885-15/e35/p1080x1080/64651917_386461475308029_1394313226252284569_n.jpg?_nc_ht=scontent-cdg2-1.cdninstagram.com&_nc_cat=109&oh=0ce83a37a67b5c291057e2fc60c5ea39&oe=5E84740B,Rio De Janeiro,Landmarks,-22.904809,-43.170611
